{
  "linger-longer-lounge": {
    "name": "Linger Longer Lounge",
    "address": "6522 N 16th St",
    "city": "Phoenix",
    "state": "AZ",
    "zip": "85016",
    "social": {
      "instagram": "lingerlongeraz",
      "website": "https://www.lingerlongerlounge.com/"
    }
  },
  "the-van-buren": {
    "name": "The Van Buren",
    "address": "401 W Van Buren St",
    "city": "Phoenix",
    "state": "AZ",
    "zip": "85003",
    "social": {
      "instagram": "thevanburenphx",
      "website": "https://www.thevanburenphx.com"
    }
  },
  "crescent-ballroom": {
    "id": "crescent-ballroom",
    "name": "Crescent Ballroom",
    "address": "308 N 2nd Ave",
    "city": "Phoenix",
    "state": "AZ",
    "zip": "85003",
    "social": {
      "instagram": "crescentphx",
      "website": "https://www.crescentphx.com"
    }
  },
  "valley-bar": {
    "id": "valley-bar",
    "name": "Valley Bar",
    "address": "130 N Central Ave",
    "city": "Phoenix",
    "state": "AZ",
    "zip": "85004",
    "social": {
      "instagram": "valleybarphx",
      "website": "https://www.valleybarphx.com"
    }
  },
  "the-rebel-lounge": {
    "id": "the-rebel-lounge",
    "name": "The Rebel Lounge",
    "address": "2303 E Indian School Rd",
    "city": "Phoenix",
    "state": "AZ",
    "zip": "85016",
    "social": {
      "instagram": "therebelphx",
      "website": "https://www.therebellounge.com"
    }
  },
  "club-congress": {
    "id": "club-congress",
    "name": "Club Congress",
    "address": "311 E Congress St",
    "city": "Tucson",
    "state": "AZ",
    "zip": "85701",
    "social": {
      "instagram": "hotelcongress",
      "website": "https://hotelcongress.com/music"
    }
  },
  "walter-studios": {
    "id": "walter-studios",
    "name": "Walter Studios",
    "address": "747 W Roosevelt St",
    "city": "Phoenix",
    "state": "AZ",
    "zip": "85007",
    "social": {
      "instagram": "walterstudiosphx",
      "website": "https://walterstudios.com/"
    }
  },
  "palo-verde-lounge": {
    "id": "palo-verde-lounge",
    "name": "Palo Verde Lounge",
    "address": "1015 W Broadway Rd",
    "city": "Tempe",
    "state": "AZ",
    "zip": "85282",
    "social": {
      "instagram": "verde_palo"
    }
  },
  "191-toole": {
    "name": "191 Toole",
    "address": "191 E Toole Ave",
    "city": "Tucson",
    "state": "AZ",
    "zip": "85701"
  },
  "nile-theater": {
    "name": "Nile Theater",
    "address": "105 W Main St",
    "city": "Mesa",
    "state": "AZ",
    "zip": "85201"
  },
  "orpheum-theater": {
    "name": "Orpheum Theater",
    "address": "203 W Adams St",
    "city": "Phoenix",
    "state": "AZ",
    "zip": "85003"
  },
  "rialto-theatre": {
    "name": "Rialto Theatre",
    "address": "318 E Congress St",
    "city": "Tucson",
    "state": "AZ",
    "zip": "85701"
  },
  "rips": {
    "name": "Rips",
    "address": "3045 N 16th St",
    "city": "Phoenix",
    "state": "AZ",
    "zip": "85016"
  },
  "myspace": {
    "name": "Myspace",
    "address": "120 E Roosevelt St",
    "city": "Phoenix",
    "state": "AZ",
    "zip": "85004"
  },
  "the-underground": {
    "name": "The Underground",
    "city": "Mesa",
    "state": "AZ"
  },
  "m3f-fest": {
    "name": "M3F Fest",
    "city": "Phoenix",
    "state": "AZ"
  },
  "tba": {
    "name": "TBA",
    "city": "Tucson",
    "state": "AZ"
  },
  "gracie's-tax-bar": {
    "name": "Gracie's Tax Bar",
    "city": "Phoenix",
    "state": "AZ"
  }
}